#aV2006  4 16  0  0   .00000000      96 DD+AD WGS84 FIT  NGA
## 1371       .00000000   900.00000000 53841  .0000000000000
+   29     1  2  3  4  5  6  7  8  9 10 11 13 14 15 16 17 18
+         19 20 21 22 23 24 25 26 27 28 29 30  0  0  0  0  0
+          0  0  0  0  0  0  0  0  0  0  0  0  0  0  0  0  0
+          0  0  0  0  0  0  0  0  0  0  0  0  0  0  0  0  0
+          0  0  0  0  0  0  0  0  0  0  0  0  0  0  0  0  0
++         0  0  0  0  0  0  0  0  0  0  0  0  0  0  0  0  0
++         0  0  0  0  0  0  0  0  0  0  0  0  0  0  0  0  0
++         0  0  0  0  0  0  0  0  0  0  0  0  0  0  0  0  0
++         0  0  0  0  0  0  0  0  0  0  0  0  0  0  0  0  0
++         0  0  0  0  0  0  0  0  0  0  0  0  0  0  0  0  0
%c cc cc ccc ccc cccc cccc cccc cccc ccccc ccccc ccccc ccccc
%c cc cc ccc ccc cccc cccc cccc cccc ccccc ccccc ccccc ccccc
%f  0.0000000  0.000000000  0.00000000000  0.000000000000000
%f  0.0000000  0.000000000  0.00000000000  0.000000000000000
%i    0    0    0    0      0      0      0      0         0
%i    0    0    0    0      0      0      0      0         0
/*      NGA, ST. LOUIS,MO.                                  
/*   EPHEMERIS COMPUTED FROM  3 DAYS OF DATA                
/* CCCCCCCCCCCCCCCCCCCCCCCCCCCCCCCCCCCCCCCCCCCCCCCCCCCCCCCCC
/* CCCCCCCCCCCCCCCCCCCCCCCCCCCCCCCCCCCCCCCCCCCCCCCCCCCCCCCCC
*  2006  4 16  5 30   .00000000                                                 
P  1  14226.549231 -13674.742612 -17561.679710     47.342604                    
V  1  -2757.619224  22510.923648 -19586.790905       .023020                    
P  2 -23062.054183  12309.561571   3794.442584     -8.814076                    
V  2  -6038.995261  -1093.255075 -31161.519062       .022419                    
P  3  11804.439055 -18569.562546  14496.171014     90.783485                    
V  3   2155.793910  19032.654902  22679.026662       .033851                    
P  4 -25553.509178   5314.024217  -5878.817334    206.170453                    
V  4   5885.095042  -5196.440775 -30117.880579       .100719                    
P  5   6765.465694  19441.754227 -17067.607697   -153.902858                    
V  5 -18912.680709 -10022.015024 -18963.943723       .652934                    
P  6   7710.406116  21616.927673  13496.394239    474.414162                    
V  6  -4629.907361  16519.908142 -24235.712923       .228538                    
P  7  15760.156105   2372.500295  21581.287773    528.499586                    
V  7  -2363.949820  26620.103692  -1359.578148       .042193                    
P  8 -22977.367817  -1505.483902  13439.471477    -62.698975                    
V  8  15548.688682  -7381.864428  25092.238237      -.012051                    
P  9  -5761.215769  17568.932120 -19503.028180     16.272612                    
V  9 -22187.022769   8501.449722  14906.708300       .016083                    
P 10 -11813.690930   9438.580453  21763.471752     81.845875                    
V 10 -21437.622765 -17691.605326  -3641.695664       .005476                    
P 11   3126.397374 -18843.718030 -18432.538080    320.848105                    
V 11  21556.260985  -9908.713108  14085.084284       .024978                    
P 13  -6703.278007 -20651.163835  15256.723502     54.897995                    
V 13   4454.537445 -18966.392258 -23527.951896       .027289                    
P 14  14424.561387   2449.474527 -22100.373717    -15.862034                    
V 14  -4216.732697  27832.401602    286.502295       .007409                    
P 15  22911.232828   2553.052573  13365.763791    597.396029                    
V 15 -15651.306768   7197.024684  24755.548314       .060468                    
P 16  16785.027330  -4627.788003  20173.245426     37.079987                    
V 16  19253.693430  16581.423971 -12170.023088       .022485                    
P 17 -14762.830714  -4058.678242 -21721.619310     82.936092                    
V 17   3989.659312 -27253.239505   2292.660482       .045873                    
P 18  19084.790308  18559.606657   2443.238936   -231.010991                    
V 18  -3956.098341     72.446459  31302.129246      -.017832                    
P 19   7509.813821 -25240.685963   3383.056269    -15.047182                    
V 19   1998.540853   4660.668494  31349.528543       .015827                    
P 20  -7411.820097 -19912.010120 -16054.810576    -28.545366                    
V 20  17207.270239  10769.428207 -21388.974132       .007138                    
P 21  16482.100764   8782.438919  19122.458417     21.767780                    
V 21 -22205.209346   9360.426170  14357.765341       .029070                    
P 22  22375.191237   9897.955260 -10189.066701     85.990920                    
V 22   8193.159088  10648.120217  27914.022418       .039048                    
P 23    395.591690 -26049.142223   4623.577611    143.925883                    
V 23   3467.697480  -5585.257884 -31298.373224      -.010441                    
P 24 -20645.899130  -4669.678787 -15967.745010    101.103802                    
V 24  18874.973626  -8468.165166 -21359.426441       .029106                    
P 25  24281.096513 -10536.842546  -2518.975324     11.128693                    
V 25  -1905.290503   4321.539007 -31290.644272       .051041                    
P 26  -8358.219699  23875.868891   6618.148219    -87.933494                    
V 26   -842.286865  -9290.724922  31277.310347      -.106150                    
P 27 -15888.851266  -8255.974561  20322.663130     44.531142                    
V 27  21652.761903 -11284.948642  12392.163129       .016716                    
P 28 -22658.301375 -12428.401130  -6588.914216     29.393215                    
V 28  -5164.018588  -7381.174991  30031.571691      -.007505                    
P 29 -10208.351130  21855.027735  11037.534682    586.337478                    
V 29    -79.260151 -13839.758248  28196.884628       .082509                    
P 30  15691.145140  19581.774699  -9162.969698    148.937679                    
V 30 -10788.340874  -4271.385348 -28351.820326       .497157                    
EOF
